IRIDIUM 112             
1 41925U 17003J   24049.56229242  .00000462  00000+0  15787-3 0  9995
2 41925  86.3913  83.3940 0002220  87.1370 273.0080 14.34219146371491
IRIDIUM 111             
1 41926U 17003K   24049.54960667  .00000098  00000+0  27844-4 0  9990
2 41926  86.3915  83.4513 0001915  89.2172 270.9243 14.34218470371546
IRIDIUM 113             
1 42803U 17039A   24049.45980348  .00000360  00000+0  12154-3 0  9991
2 42803  86.3997 317.2614 0002001  77.7220 282.4199 14.34216191349398
IRIDIUM 123             
1 42804U 17039B   24049.85012409  .00000062  00000+0  14992-4 0  9992
2 42804  86.4021 348.5832 0002088  81.3620 278.7812 14.34215043348212
IRIDIUM 120             
1 42805U 17039C   24049.45346207  .00000388  00000+0  13141-3 0  9990
2 42805  86.3985 317.1566 0002092  84.8305 275.3129 14.34218312349385
IRIDIUM 115             
1 42806U 17039D   24049.46913450  .00000832  00000+0  24129-3 0  9994
2 42806  86.4525 317.1572 0001989  79.8116 280.3309 14.43294824351709
IRIDIUM 118             
1 42807U 17039E   24049.53299469  .00000149  00000+0  45999-4 0  9990
2 42807  86.4020 348.7174 0002237  84.8330 275.3121 14.34218137348164
IRIDIUM 117             
1 42808U 17039F   24049.55201508  .00000420  00000+0  14290-3 0  9991
2 42808  86.4019 348.6747 0001921  85.2380 274.9035 14.34216074348197
